HAWK-7B                 
1 56193U 23054R   26068.68903567  .00007955  00000+0  31011-3 0  9998
2 56193  97.2859 316.7839 0003661  61.5878 298.5730 15.26206341161848
STARLINK-33545          
1 62101U 24220P   26068.42503775  .00039641  00000+0  14410-2 0  9999
2 62101  43.0013 206.7886 0003104 295.1029  64.9501 15.27607917 72982
